{
  "type": "FeatureCollection",
  "features": [
    {
      "type": "Feature",
      "properties": {
        "norad_id": 35789,
        "name": "COSMOS 2251 DEB",
        "group": "cosmos-2251-debris",
        "lat": -9.557137294859311,
        "lon": 109.49237020674215,
        "alt_km": 807.9140314128508,
        "timestamp": "2025-12-11T10:53:16.286727+00:00",
        "meta_object_name": "COSMOS 2251 DEB",
        "meta_object_id": "1993-036ASK",
        "meta_epoch": "2025-12-10T13:56:40.706016",
        "meta_mean_motion": 14.35983063,
        "meta_eccentricity": 0.0047241,
        "meta_inclination": 74.0389,
        "meta_ra_of_asc_node": 288.3315,
        "meta_arg_of_pericenter": 28.3225,
        "meta_mean_anomaly": 332.048,
        "meta_ephemeris_type": 0,
        "meta_classification_type": "U",
        "meta_norad_cat_id": 35789,
        "meta_element_set_no": 999,
        "meta_rev_at_epoch": 61196,
        "meta_bstar": 0.00023036,
        "meta_mean_motion_dot": 6.52e-06,
        "meta_mean_motion_ddot": 0,
        "tle_line1": "1 35789U 93036ASK 25344.58102669  .00000652  00000+0  23036-3 0  9997",
        "tle_line2": "2 35789  74.0389 288.3315 0047241  28.3225 332.0480 14.35983063611960"
      },
      "geometry": {
        "type": "Point",
        "coordinates": [
          109.49237020674215,
          -9.557137294859311
        ]
      }
    },
    {
      "type": "Feature",
      "properties": {
        "norad_id": 35793,
        "name": "COSMOS 2251 DEB",
        "group": "cosmos-2251-debris",
        "lat": 42.62478328051372,
        "lon": 77.98199316301502,
        "alt_km": 629.5456792994164,
        "timestamp": "2025-12-11T10:53:16.286738+00:00",
        "meta_object_name": "COSMOS 2251 DEB",
        "meta_object_id": "1993-036ASP",
        "meta_epoch": "2025-12-10T12:00:05.903712",
        "meta_mean_motion": 14.78584322,
        "meta_eccentricity": 0.00027665,
        "meta_inclination": 74.0407,
        "meta_ra_of_asc_node": 64.5844,
        "meta_arg_of_pericenter": 128.5432,
        "meta_mean_anomaly": 242.5188,
        "meta_ephemeris_type": 0,
        "meta_classification_type": "U",
        "meta_norad_cat_id": 35793,
        "meta_element_set_no": 999,
        "meta_rev_at_epoch": 65764,
        "meta_bstar": 0.0028765348,
        "meta_mean_motion_dot": 0.00021082,
        "meta_mean_motion_ddot": 0,
        "tle_line1": "1 35793U 93036ASP 25344.50006833  .00021082  00000+0  28765-2 0  9993",
        "tle_line2": "2 35793  74.0407  64.5844 0002766 128.5432 242.5188 14.78584322657640"
      },
      "geometry": {
        "type": "Point",
        "coordinates": [
          77.98199316301502,
          42.62478328051372
        ]
      }
    },
    {
      "type": "Feature",
      "properties": {
        "norad_id": 35824,
        "name": "COSMOS 2251 DEB",
        "group": "cosmos-2251-debris",
        "lat": 54.692943025722904,
        "lon": -153.1545336434836,
        "alt_km": 752.6242743826506,
        "timestamp": "2025-12-11T10:53:16.286748+00:00",
        "meta_object_name": "COSMOS 2251 DEB",
        "meta_object_id": "1993-036ASW",
        "meta_epoch": "2025-12-08T11:24:31.157568",
        "meta_mean_motion": 13.883958,
        "meta_eccentricity": 0.02494458,
        "meta_inclination": 73.8458,
        "meta_ra_of_asc_node": 56.1203,
        "meta_arg_of_pericenter": 143.0234,
        "meta_mean_anomaly": 218.8382,
        "meta_ephemeris_type": 0,
        "meta_classification_type": "U",
        "meta_norad_cat_id": 35824,
        "meta_element_set_no": 999,
        "meta_rev_at_epoch": 84168,
        "meta_bstar": 0.0020429183,
        "meta_mean_motion_dot": 3.116e-05,
        "meta_mean_motion_ddot": 0,
        "tle_line1": "1 35824U 93036ASW 25342.47536062  .00003116  00000+0  20429-2 0  9991",
        "tle_line2": "2 35824  73.8458  56.1203 0249445 143.0234 218.8382 13.88395800841685"
      },
      "geometry": {
        "type": "Point",
        "coordinates": [
          -153.1545336434836,
          54.692943025722904
        ]
      }
    },
    {
      "type": "Feature",
      "properties": {
        "norad_id": 35825,
        "name": "COSMOS 2251 DEB",
        "group": "cosmos-2251-debris",
        "lat": -34.87960117171064,
        "lon": -23.795368990978833,
        "alt_km": 763.5167267510706,
        "timestamp": "2025-12-11T10:53:16.286759+00:00",
        "meta_object_name": "COSMOS 2251 DEB",
        "meta_object_id": "1993-036ASX",
        "meta_epoch": "2025-12-06T17:43:31.257408",
        "meta_mean_motion": 13.70908059,
        "meta_eccentricity": 0.03529553,
        "meta_inclination": 74.1125,
        "meta_ra_of_asc_node": 152.5025,
        "meta_arg_of_pericenter": 249.6557,
        "meta_mean_anomaly": 106.6316,
        "meta_ephemeris_type": 0,
        "meta_classification_type": "U",
        "meta_norad_cat_id": 35825,
        "meta_element_set_no": 999,
        "meta_rev_at_epoch": 82426,
        "meta_bstar": 0.0026115912,
        "meta_mean_motion_dot": 3.599e-05,
        "meta_mean_motion_ddot": 0,
        "tle_line1": "1 35825U 93036ASX 25340.73855622  .00003599  00000+0  26116-2 0  9999",
        "tle_line2": "2 35825  74.1125 152.5025 0352955 249.6557 106.6316 13.70908059824269"
      },
      "geometry": {
        "type": "Point",
        "coordinates": [
          -23.795368990978833,
          -34.87960117171064
        ]
      }
    },
    {
      "type": "Feature",
      "properties": {
        "norad_id": 35829,
        "name": "COSMOS 2251 DEB",
        "group": "cosmos-2251-debris",
        "lat": -24.589454983076646,
        "lon": 93.79727431974503,
        "alt_km": 650.7602624695601,
        "timestamp": "2025-12-11T10:53:16.286769+00:00",
        "meta_object_name": "COSMOS 2251 DEB",
        "meta_object_id": "1993-036ATB",
        "meta_epoch": "2025-12-08T14:41:25.732032",
        "meta_mean_motion": 14.76103447,
        "meta_eccentricity": 0.0006283,
        "meta_inclination": 74.0249,
        "meta_ra_of_asc_node": 106.8945,
        "meta_arg_of_pericenter": 174.4564,
        "meta_mean_anomaly": 185.6681,
        "meta_ephemeris_type": 0,
        "meta_classification_type": "U",
        "meta_norad_cat_id": 35829,
        "meta_element_set_no": 999,
        "meta_rev_at_epoch": 87714,
        "meta_bstar": 0.0032694,
        "meta_mean_motion_dot": 0.0002262,
        "meta_mean_motion_ddot": 0,
        "tle_line1": "1 35829U 93036ATB 25342.61210338  .00022620  00000+0  32694-2 0  9995",
        "tle_line2": "2 35829  74.0249 106.8945 0006283 174.4564 185.6681 14.76103447877147"
      },
      "geometry": {
        "type": "Point",
        "coordinates": [
          93.79727431974503,
          -24.589454983076646
        ]
      }
    },
    {
      "type": "Feature",
      "properties": {
        "norad_id": 35830,
        "name": "COSMOS 2251 DEB",
        "group": "cosmos-2251-debris",
        "lat": 21.526262672922172,
        "lon": 82.22077409642404,
        "alt_km": 794.8151958650706,
        "timestamp": "2025-12-11T10:53:16.286780+00:00",
        "meta_object_name": "COSMOS 2251 DEB",
        "meta_object_id": "1993-036ATC",
        "meta_epoch": "2025-12-06T12:06:38.215008",
        "meta_mean_motion": 14.23927917,
        "meta_eccentricity": 0.01224789,
        "meta_inclination": 73.8624,
        "meta_ra_of_asc_node": 277.7805,
        "meta_arg_of_pericenter": 247.2482,
        "meta_mean_anomaly": 111.5683,
        "meta_ephemeris_type": 0,
        "meta_classification_type": "U",
        "meta_norad_cat_id": 35830,
        "meta_element_set_no": 999,
        "meta_rev_at_epoch": 61175,
        "meta_bstar": 0.0019622096,
        "meta_mean_motion_dot": 4.837e-05,
        "meta_mean_motion_ddot": 0,
        "tle_line1": "1 35830U 93036ATC 25340.50460897  .00004837  00000+0  19622-2 0  9996",
        "tle_line2": "2 35830  73.8624 277.7805 0122478 247.2482 111.5683 14.23927917611750"
      },
      "geometry": {
        "type": "Point",
        "coordinates": [
          82.22077409642404,
          21.526262672922172
        ]
      }
    },
    {
      "type": "Feature",
      "properties": {
        "norad_id": 35834,
        "name": "COSMOS 2251 DEB",
        "group": "cosmos-2251-debris",
        "lat": 44.68279711214028,
        "lon": -36.60876363874389,
        "alt_km": 805.1768862141607,
        "timestamp": "2025-12-11T10:53:16.286790+00:00",
        "meta_object_name": "COSMOS 2251 DEB",
        "meta_object_id": "1993-036ATG",
        "meta_epoch": "2025-12-11T03:56:52.139040",
        "meta_mean_motion": 14.12976898,
        "meta_eccentricity": 0.0109236,
        "meta_inclination": 73.9315,
        "meta_ra_of_asc_node": 307.3439,
        "meta_arg_of_pericenter": 107.9272,
        "meta_mean_anomaly": 269.9221,
        "meta_ephemeris_type": 0,
        "meta_classification_type": "U",
        "meta_norad_cat_id": 35834,
        "meta_element_set_no": 999,
        "meta_rev_at_epoch": 66241,
        "meta_bstar": 0.0003939,
        "meta_mean_motion_dot": 7.52e-06,
        "meta_mean_motion_ddot": 0,
        "tle_line1": "1 35834U 93036ATG 25345.16449235  .00000752  00000+0  39390-3 0  9997",
        "tle_line2": "2 35834  73.9315 307.3439 0109236 107.9272 269.9221 14.12976898662416"
      },
      "geometry": {
        "type": "Point",
        "coordinates": [
          -36.60876363874389,
          44.68279711214028
        ]
      }
    }
  ]
}